QIANFAN-65              
1 62795U 25016L   25281.25746221  .00000059  00000+0  72146-4 0  9997
2 62795  88.9727 109.8359 0014162 165.6483 194.5073 13.50971170 38402
QIANFAN-66              
1 62796U 25016M   25281.28636277  .00000048  00000+0  54867-4 0  9998
2 62796  88.9747 109.7902 0015412 161.7445 198.4263 13.50966315 38456
QIANFAN-67              
1 62797U 25016N   25281.29034264  .00000078  00000+0  10174-3 0  9993
2 62797  88.9737 109.8218 0015179 168.4872 191.6629 13.50967996 38429
QIANFAN-68              
1 62798U 25016P   25281.28215253  .00000062  00000+0  76615-4 0  9998
2 62798  88.9743 109.8655 0015276 166.7980 193.3574 13.50970325 38407
QIANFAN-69              
1 62799U 25016Q   25281.29863157  .00000067  00000+0  84675-4 0  9992
2 62799  88.9719 109.7473 0015994 168.0950 192.0582 13.50967880 38448
QIANFAN-70              
1 62800U 25016R   25281.24091115  .00000073  00000+0  94491-4 0  9991
2 62800  88.9740 109.8779 0015861 158.7109 201.4705 13.50972875 38396
QIANFAN-71              
1 62801U 25016S   25281.23688895  .00000067  00000+0  85616-4 0  9990
2 62801  88.9734 109.8618 0015805 171.7230 188.4185 13.50971599 38398
QIANFAN-72              
1 62802U 25016T   25274.29087208  .00000084  00000+0  11481-3 0  9997
2 62802  88.9730 110.6012 0018440 200.3911 159.6505 13.49486897 37447
